[
  {
    "name": "STARLINK-37361",
    "noradId": "69134",
    "line1": "1 69134U 26110L   26167.58334491 -.00009083  00000+0 -27922-3 0  9998",
    "line2": "2 69134  97.2840   4.0109 0002007  84.2006  34.9155 15.33457397  5557"
  },
  {
    "name": "STARLINK-37372",
    "noradId": "69135",
    "line1": "1 69135U 26110M   26167.58334491 -.03018377  00000+0 -88267-1 0  9995",
    "line2": "2 69135  97.2843   4.0059 0001227  49.0085  49.0732 15.39193508  5559"
  },
  {
    "name": "STARLINK-37531",
    "noradId": "69136",
    "line1": "1 69136U 26110N   26167.58334491 -.00003370  00000+0 -10211-3 0  9996",
    "line2": "2 69136  97.2839   4.0241 0001752  90.3291  58.7996 15.33441617  5559"
  },
  {
    "name": "STARLINK-37662",
    "noradId": "69137",
    "line1": "1 69137U 26110P   26167.58334491 -.02679890  00000+0 -74007-1 0  9996",
    "line2": "2 69137  97.2846   4.0101 0002661  80.4404  22.4094 15.41086670  5559"
  },
  {
    "name": "STARLINK-37658",
    "noradId": "69138",
    "line1": "1 69138U 26110Q   26167.52651180  .00030636  00000+0  56225-3 0  9997",
    "line2": "2 69138  97.2843   3.8861 0001516 119.0725 241.0678 15.49214842  5504"
  },
  {
    "name": "STARLINK-37659",
    "noradId": "69139",
    "line1": "1 69139U 26110R   26167.53420659  .00018024  00000+0  33164-3 0  9998",
    "line2": "2 69139  97.2821   3.8739 0001234 111.1993 248.9390 15.49246994  5502"
  },
  {
    "name": "STARLINK-37653",
    "noradId": "69140",
    "line1": "1 69140U 26110S   26167.53667258  .00032798  00000+0  60159-3 0  9996",
    "line2": "2 69140  97.2816   3.8708 0002171 100.9073 259.2423 15.49216578  5507"
  },
  {
    "name": "STARLINK-37654",
    "noradId": "69141",
    "line1": "1 69141U 26110T   26166.52422448  .00038342  00000+0  70164-3 0  9993",
    "line2": "2 69141  97.2827   2.9503 0001818  88.7991 271.3469 15.49252690  5355"
  },
  {
    "name": "STARLINK-37655",
    "noradId": "69142",
    "line1": "1 69142U 26110U   26167.58334491  .00000821  00000+0  24902-4 0  9992",
    "line2": "2 69142  97.2848   4.0385 0001400  90.4185 100.1883 15.36971965  5563"
  },
  {
    "name": "STARLINK-37636",
    "noradId": "69143",
    "line1": "1 69143U 26110V   26167.58334491 -.00011522  00000+0 -35511-3 0  9992",
    "line2": "2 69143  97.2845   4.0682 0002093  76.2252 177.8191 15.33442335  5561"
  },
  {
    "name": "STARLINK-37638",
    "noradId": "69144",
    "line1": "1 69144U 26110W   26167.58334491 -.00016546  00000+0 -51110-3 0  9997",
    "line2": "2 69144  97.2845   4.0744 0001349  81.0721 188.0659 15.33457380  5568"
  },
  {
    "name": "STARLINK-37657",
    "noradId": "69145",
    "line1": "1 69145U 26110X   26167.58334491  .00024494  00000+0  45066-3 0  9990",
    "line2": "2 69145  97.2841   4.0205 0001438  85.5003  56.3822 15.49186169  5614"
  },
  {
    "name": "STARLINK-37639",
    "noradId": "69146",
    "line1": "1 69146U 26110Y   26167.58334491 -.00018850  00000+0 -58329-3 0  9998",
    "line2": "2 69146  97.2845   4.0878 0001495  83.2102 215.9175 15.33429716  5618"
  },
  {
    "name": "STARLINK-37661",
    "noradId": "69147",
    "line1": "1 69147U 26110Z   26167.51477093  .00029440  00000+0  54043-3 0  9992",
    "line2": "2 69147  97.2828   3.9004 0001754  94.8036 265.3415 15.49215430  5508"
  },
  {
    "name": "STARLINK-37395",
    "noradId": "69148",
    "line1": "1 69148U 26111A   26167.58334491 -.00959782  00000+0 -11708-1 0  9997",
    "line2": "2 69148  53.1595 155.0771 0001254  78.2432 137.5529 15.62466313  5455"
  },
  {
    "name": "STARLINK-37346",
    "noradId": "69149",
    "line1": "1 69149U 26111B   26167.58334491 -.00007966  00000+0 -13529-3 0  9991",
    "line2": "2 69149  53.1593 155.7057 0001464  83.6160 181.7568 15.49312965  5451"
  },
  {
    "name": "STARLINK-37332",
    "noradId": "69150",
    "line1": "1 69150U 26111C   26167.58334491  .00000146  00000+0  10692-4 0  9993",
    "line2": "2 69150  53.1596 156.0308 0001157  82.1059  22.4600 15.49309064  5453"
  },
  {
    "name": "STARLINK-37297",
    "noradId": "69151",
    "line1": "1 69151U 26111D   26167.58334491 -.02523740  00000+0 -38270-1 0  9997",
    "line2": "2 69151  53.1593 155.0332 0001564  86.2698 150.5991 15.57878252  5458"
  },
  {
    "name": "STARLINK-37317",
    "noradId": "69152",
    "line1": "1 69152U 26111E   26167.58334491 -.02497551  00000+0 -31561-1 0  9994",
    "line2": "2 69152  53.1594 154.8753 0001090 103.4086 211.0231 15.62545588  5450"
  },
  {
    "name": "STARLINK-37374",
    "noradId": "69153",
    "line1": "1 69153U 26111F   26167.19327447  .00039887  00000+0  72081-3 0  9999",
    "line2": "2 69153  53.1602 158.0723 0000958 104.0559 256.0557 15.49338717  4085"
  },
  {
    "name": "STARLINK-37235",
    "noradId": "69154",
    "line1": "1 69154U 26111G   26167.40820035  .00060281  00000+0  10826-2 0  9995",
    "line2": "2 69154  53.1587 157.2879 0002942  24.3252 335.7896 15.49330976  4114"
  },
  {
    "name": "STARLINK-37329",
    "noradId": "69155",
    "line1": "1 69155U 26111H   26167.58334491 -.02543380  00000+0 -32552-1 0  9990",
    "line2": "2 69155  53.1592 154.8806 0001183 103.1321 208.7787 15.62293360  5459"
  },
  {
    "name": "STARLINK-37345",
    "noradId": "69156",
    "line1": "1 69156U 26111J   26167.58334491 -.02570631  00000+0 -30834-1 0  9991",
    "line2": "2 69156  53.1599 154.8248 0000816  89.4267 249.6938 15.63974197  5451"
  },
  {
    "name": "STARLINK-37353",
    "noradId": "69157",
    "line1": "1 69157U 26111K   26167.58334491 -.02555175  00000+0 -30253-1 0  9993",
    "line2": "2 69157  53.1596 154.8170 0000800  87.2877 255.5878 15.64274916  5451"
  },
  {
    "name": "STARLINK-37363",
    "noradId": "69158",
    "line1": "1 69158U 26111L   26167.58334491 -.02535687  00000+0 -30239-1 0  9994",
    "line2": "2 69158  53.1598 154.8215 0000757  87.3382 253.3352 15.64066123  5459"
  },
  {
    "name": "STARLINK-37343",
    "noradId": "69159",
    "line1": "1 69159U 26111M   26167.19341149  .00076863  00000+0  13732-2 0  9992",
    "line2": "2 69159  53.1601 158.0719 0001252 136.0278 224.0831 15.49377416  4085"
  },
  {
    "name": "STARLINK-37328",
    "noradId": "69160",
    "line1": "1 69160U 26111N   26167.58334491 -.02940143  00000+0 -33586-1 0  9992",
    "line2": "2 69160  53.1598 154.7817 0000776  85.8434 274.0321 15.65081089  5456"
  },
  {
    "name": "STARLINK-37311",
    "noradId": "69161",
    "line1": "1 69161U 26111P   26167.58334491 -.02546696  00000+0 -26107-1 0  9999",
    "line2": "2 69161  53.1590 154.8743 0000858  88.3719 226.5520 15.67802048  5454"
  },
  {
    "name": "STARLINK-36286",
    "noradId": "69162",
    "line1": "1 69162U 26111Q   26167.58334491 -.02612278  00000+0 -43371-1 0  9992",
    "line2": "2 69162  53.1603 155.1362 0001337  83.6058 102.0562 15.54973426  5457"
  },
  {
    "name": "STARLINK-37196",
    "noradId": "69163",
    "line1": "1 69163U 26111R   26165.56034997  .00136844  00000+0  77789-3 0  9995",
    "line2": "2 69163  53.1566 164.9214 0001435  48.8780 311.2365 15.78098124  3849"
  }
]