OBJECT_NAME,OBJECT_ID,EPOCH,MEAN_MOTION,ECCENTRICITY,INCLINATION,RA_OF_ASC_NODE,ARG_OF_PERICENTER,MEAN_ANOMALY,EPHEMERIS_TYPE,CLASSIFICATION_TYPE,NORAD_CAT_ID,ELEMENT_SET_NO,REV_AT_EPOCH,BSTAR,MEAN_MOTION_DOT,MEAN_MOTION_DDOT
STARLINK-37361,2026-110L,2026-06-16T14:00:01.000224,15.33457397,.00020079,97.2840,4.0109,84.2006,34.9155,0,U,69134,999,555,-.2792244E-3,-.9083E-4,0
STARLINK-37372,2026-110M,2026-06-16T14:00:01.000224,15.39193508,.00012278,97.2843,4.0059,49.0085,49.0732,0,U,69135,999,555,-.88267494E-1,-.3018377E-1,0
STARLINK-37531,2026-110N,2026-06-16T14:00:01.000224,15.33441617,.00017524,97.2839,4.0241,90.3291,58.7996,0,U,69136,999,555,-.10210939E-3,-.337E-4,0
STARLINK-37662,2026-110P,2026-06-16T14:00:01.000224,15.41086670,.00026615,97.2846,4.0101,80.4404,22.4094,0,U,69137,999,555,-.74007454E-1,-.267989E-1,0
STARLINK-37658,2026-110Q,2026-06-16T12:38:10.619520,15.49214842,.00015168,97.2843,3.8861,119.0725,241.0678,0,U,69138,999,550,.56224905E-3,.30636E-3,0
STARLINK-37659,2026-110R,2026-06-16T12:49:15.449376,15.49246994,.00012346,97.2821,3.8739,111.1993,248.9390,0,U,69139,999,550,.33164243E-3,.18024E-3,0
STARLINK-37653,2026-110S,2026-06-16T12:52:48.510912,15.49216578,.00021717,97.2816,3.8708,100.9073,259.2423,0,U,69140,999,550,.60159318E-3,.32798E-3,0
STARLINK-37654,2026-110T,2026-06-15T12:34:52.995072,15.49252690,.00018186,97.2827,2.9503,88.7991,271.3469,0,U,69141,999,535,.70164466E-3,.38342E-3,0
STARLINK-37655,2026-110U,2026-06-16T14:00:01.000224,15.36971965,.00014007,97.2848,4.0385,90.4185,100.1883,0,U,69142,999,556,.24902186E-4,.821E-5,0
STARLINK-37636,2026-110V,2026-06-16T14:00:01.000224,15.33442335,.00020934,97.2845,4.0682,76.2252,177.8191,0,U,69143,999,556,-.35510536E-3,-.11522E-3,0
STARLINK-37638,2026-110W,2026-06-16T14:00:01.000224,15.33457380,.0001349,97.2845,4.0744,81.0721,188.0659,0,U,69144,999,556,-.51110469E-3,-.16546E-3,0
STARLINK-37657,2026-110X,2026-06-16T14:00:01.000224,15.49186169,.00014387,97.2841,4.0205,85.5003,56.3822,0,U,69145,999,561,.45066068E-3,.24494E-3,0
STARLINK-37639,2026-110Y,2026-06-16T14:00:01.000224,15.33429716,.00014956,97.2845,4.0878,83.2102,215.9175,0,U,69146,999,561,-.5832865E-3,-.1885E-3,0
STARLINK-37661,2026-110Z,2026-06-16T12:21:16.208352,15.49215430,.00017549,97.2828,3.9004,94.8036,265.3415,0,U,69147,999,550,.54043359E-3,.2944E-3,0
STARLINK-37395,2026-111A,2026-06-16T14:00:01.000224,15.62466313,.00012545,53.1595,155.0771,78.2432,137.5529,0,U,69148,999,545,-.11708037E-1,-.959782E-2,0
STARLINK-37346,2026-111B,2026-06-16T14:00:01.000224,15.49312965,.00014642,53.1593,155.7057,83.6160,181.7568,0,U,69149,999,545,-.13528823E-3,-.7966E-4,0
STARLINK-37332,2026-111C,2026-06-16T14:00:01.000224,15.49309064,.00011574,53.1596,156.0308,82.1059,22.4600,0,U,69150,999,545,.10691731E-4,.146E-5,0
STARLINK-37297,2026-111D,2026-06-16T14:00:01.000224,15.57878252,.00015642,53.1593,155.0332,86.2698,150.5991,0,U,69151,999,545,-.3827005E-1,-.252374E-1,0
STARLINK-37317,2026-111E,2026-06-16T14:00:01.000224,15.62545588,.00010907,53.1594,154.8753,103.4086,211.0231,0,U,69152,999,545,-.31561099E-1,-.2497551E-1,0
STARLINK-37374,2026-111F,2026-06-16T04:38:18.914208,15.49338717,.00009586,53.1602,158.0723,104.0559,256.0557,0,U,69153,999,408,.72081013E-3,.39887E-3,0
STARLINK-37235,2026-111G,2026-06-16T09:47:48.510240,15.49330976,.00029427,53.1587,157.2879,24.3252,335.7896,0,U,69154,999,411,.10826299E-2,.60281E-3,0
STARLINK-37329,2026-111H,2026-06-16T14:00:01.000224,15.62293360,.0001183,53.1592,154.8806,103.1321,208.7787,0,U,69155,999,545,-.32552013E-1,-.254338E-1,0
STARLINK-37345,2026-111J,2026-06-16T14:00:01.000224,15.63974197,.00008161,53.1599,154.8248,89.4267,249.6938,0,U,69156,999,545,-.30833793E-1,-.2570631E-1,0
STARLINK-37353,2026-111K,2026-06-16T14:00:01.000224,15.64274916,.00008009,53.1596,154.8170,87.2877,255.5878,0,U,69157,999,545,-.30252983E-1,-.2555175E-1,0
STARLINK-37363,2026-111L,2026-06-16T14:00:01.000224,15.64066123,.00007571,53.1598,154.8215,87.3382,253.3352,0,U,69158,999,545,-.30238702E-1,-.2535687E-1,0
STARLINK-37343,2026-111M,2026-06-16T04:38:30.752736,15.49377416,.00012521,53.1601,158.0719,136.0278,224.0831,0,U,69159,999,408,.137319E-2,.76863E-3,0
STARLINK-37328,2026-111N,2026-06-16T14:00:01.000224,15.65081089,.00007761,53.1598,154.7817,85.8434,274.0321,0,U,69160,999,545,-.33585799E-1,-.2940143E-1,0
STARLINK-37311,2026-111P,2026-06-16T14:00:01.000224,15.67802048,.00008584,53.1590,154.8743,88.3719,226.5520,0,U,69161,999,545,-.26107101E-1,-.2546696E-1,0
STARLINK-36286,2026-111Q,2026-06-16T14:00:01.000224,15.54973426,.00013379,53.1603,155.1362,83.6058,102.0562,0,U,69162,999,545,-.43371205E-1,-.2612278E-1,0
STARLINK-37196,2026-111R,2026-06-14T13:26:54.237408,15.78098124,.0001435,53.1566,164.9214,48.8780,311.2365,0,U,69163,999,384,.77789E-3,.136844E-2,0
